[{"OBJECT_NAME":"STARLINK-1911","OBJECT_ID":"2020-074L","EPOCH":"2026-03-10T00:00:02.999808","MEAN_MOTION":15.7196626,"ECCENTRICITY":0.00010753,"INCLINATION":53.0465,"RA_OF_ASC_NODE":276.9224,"ARG_OF_PERICENTER":50.1756,"MEAN_ANOMALY":209.8955,"EPHEMERIS_TYPE":0,"CLASSIFICATION_TYPE":"U","NORAD_CAT_ID":46749,"ELEMENT_SET_NO":999,"REV_AT_EPOCH":580,"BSTAR":0.00055147557,"MEAN_MOTION_DOT":0.00073486,"MEAN_MOTION_DDOT":0},{"OBJECT_NAME":"STARLINK-11505 [DTC]","OBJECT_ID":"2024-254H","EPOCH":"2026-03-09T13:38:34.150848","MEAN_MOTION":15.70807986,"ECCENTRICITY":0.0006306,"INCLINATION":43.0025,"RA_OF_ASC_NODE":223.5788,"ARG_OF_PERICENTER":295.0096,"MEAN_ANOMALY":65.0116,"EPHEMERIS_TYPE":0,"CLASSIFICATION_TYPE":"U","NORAD_CAT_ID":62469,"ELEMENT_SET_NO":999,"REV_AT_EPOCH":6937,"BSTAR":0.0017558,"MEAN_MOTION_DOT":0.00231076,"MEAN_MOTION_DDOT":0}]
